H1 CPF  1  DGF 2022 05 02 11  6221 larets     NONE      
H2   304206 5557    27944 2022 05 02 00 00 00 2022 05 09 00 00 00    30 1 1  0 0 0
H5  0.0650
H9
10 0 59701  50400.000000  0       5957634.657        670838.698       3723169.692
10 0 59701  50430.000000  0       6077269.419        632741.875       3532737.545
10 0 59701  50460.000000  0       6190565.553        593493.114       3338692.662
10 0 59701  50490.000000  0       6297403.635        553160.302       3141233.736
10 0 59701  50520.000000  0       6397671.154        511812.934       2940562.946
10 0 59701  50550.000000  0       6491262.646        469522.007       2736885.746
10 0 59701  50580.000000  0       6578079.811        426359.914       2530410.659
10 0 59701  50610.000000  0       6658031.622        382400.341       2321349.047
10 0 59701  50640.000000  0       6731034.427        337718.160       2109914.890
10 0 59701  50670.000000  0       6797012.036        292389.315       1896324.562
10 0 59701  50700.000000  0       6855895.801        246490.717       1680796.597
10 0 59701  50730.000000  0       6907624.687        200100.129       1463551.467
10 0 59701  50760.000000  0       6952145.337        153296.050       1244811.348
10 0 59701  50790.000000  0       6989412.130        106157.605       1024799.890
10 0 59701  50820.000000  0       7019387.231         58764.423        803741.983
10 0 59701  50850.000000  0       7042040.629         11196.527        581863.515
10 0 59701  50880.000000  0       7057350.165        -36465.788        359391.132
10 0 59701  50910.000000  0       7065301.552        -84142.071        136551.997
10 0 59701  50940.000000  0       7065888.375       -131751.828        -86426.445
10 0 59701  50970.000000  0       7059112.096       -179214.647       -309316.704
10 0 59701  51000.000000  0       7044982.047       -226450.311       -531891.484
10 0 59701  51030.000000  0       7023515.411       -273378.913       -753923.916
10 0 59701  51060.000000  0       6994737.198       -319920.975       -975187.803
10 0 59701  51090.000000  0       6958680.207       -365997.564      -1195457.849
10 0 59701  51120.000000  0       6915384.979       -411530.401      -1414509.900
10 0 59701  51150.000000  0       6864899.743       -456441.979      -1632121.168
10 0 59701  51180.000000  0       6807280.354       -500655.676      -1848070.465
10 0 59701  51210.000000  0       6742590.220       -544095.862      -2062138.427
10 0 59701  51240.000000  0       6670900.230       -586688.014      -2274107.739
10 0 59701  51270.000000  0       6592288.656       -628358.816      -2483763.358
10 0 59701  51300.000000  0       6506841.066       -669036.274      -2690892.730
10 0 59701  51330.000000  0       6414650.216       -708649.814      -2895286.007
10 0 59701  51360.000000  0       6315815.940       -747130.383      -3096736.259
10 0 59701  51390.000000  0       6210445.030       -784410.552      -3295039.676
10 0 59701  51420.000000  0       6098651.110       -820424.611      -3489995.780
10 0 59701  51450.000000  0       5980554.503       -855108.662      -3681407.617
10 0 59701  51480.000000  0       5856282.089       -888400.713      -3869081.959
10 0 59701  51510.000000  0       5725967.159       -920240.764      -4052829.485
10 0 59701  51540.000000  0       5589749.258       -950570.894      -4232464.973
10 0 59701  51570.000000  0       5447774.032       -979335.343      -4407807.474
10 0 59701  51600.000000  0       5300193.060      -1006480.591      -4578680.489
10 0 59701  51630.000000  0       5147163.686      -1031955.435      -4744912.137
10 0 59701  51660.000000  0       4988848.846      -1055711.065      -4906335.325
10 0 59701  51690.000000  0       4825416.879      -1077701.133      -5062787.904
10 0 59701  51720.000000  0       4657041.350      -1097881.822      -5214112.826
10 0 59701  51750.000000  0       4483900.853      -1116211.908      -5360158.286
10 0 59701  51780.000000  0       4306178.817      -1132652.822      -5500777.873
10 0 59701  51810.000000  0       4124063.308      -1147168.710      -5635830.700
10 0 59701  51840.000000  0       3937746.821      -1159726.483      -5765181.537
10 0 59701  51870.000000  0       3747426.077      -1170295.866      -5888700.934
10 0 59701  51900.000000  0       3553301.810      -1178849.448      -6006265.340
10 0 59701  51930.000000  0       3355578.557      -1185362.718      -6117757.214
10 0 59701  51960.000000  0       3154464.439      -1189814.107      -6223065.133
10 0 59701  51990.000000  0       2950170.945      -1192185.018      -6322083.894
10 0 59701  52020.000000  0       2742912.710      -1192459.860      -6414714.609
10 0 59701  52050.000000  0       2532907.290      -1190626.068      -6500864.794
10 0 59701  52080.000000  0       2320374.936      -1186674.135      -6580448.451
10 0 59701  52110.000000  0       2105538.366      -1180597.625      -6653386.142
10 0 59701  52140.000000  0       1888622.537      -1172393.190      -6719605.067
10 0 59701  52170.000000  0       1669854.412      -1162060.586      -6779039.118
10 0 59701  52200.000000  0       1449462.731      -1149602.681      -6831628.945
10 0 59701  52230.000000  0       1227677.774      -1135025.455      -6877322.010
10 0 59701  52260.000000  0       1004731.132      -1118338.003      -6916072.633
10 0 59701  52290.000000  0        780855.461      -1099552.529      -6947842.033
10 0 59701  52320.000000  0        556284.252      -1078684.335      -6972598.360
10 0 59701  52350.000000  0        331251.594      -1055751.815      -6990316.723
10 0 59701  52380.000000  0        105991.939      -1030776.436      -7000979.210
10 0 59701  52410.000000  0       -119260.134      -1003782.718      -7004574.908
10 0 59701  52440.000000  0       -344270.151       -974798.219      -7001099.918
10 0 59701  52470.000000  0       -568803.990       -943853.498      -6990557.356
10 0 59701  52500.000000  0       -792628.109       -910982.094      -6972957.357
10 0 59701  52530.000000  0      -1015509.791       -876220.482      -6948317.061
10 0 59701  52560.000000  0      -1237217.372       -839608.040      -6916660.601
10 0 59701  52590.000000  0      -1457520.481       -801187.004      -6878019.084
10 0 59701  52620.000000  0      -1676190.266       -761002.421      -6832430.561
10 0 59701  52650.000000  0      -1892999.635       -719102.102      -6779939.998
10 0 59701  52680.000000  0      -2107723.477       -675536.569      -6720599.231
10 0 59701  52710.000000  0      -2320138.891       -630358.998      -6654466.923
10 0 59701  52740.000000  0      -2530025.409       -583625.158      -6581608.517
10 0 59701  52770.000000  0      -2737165.221       -535393.349      -6502096.184
10 0 59701  52800.000000  0      -2941343.397       -485724.334      -6416008.758
10 0 59701  52830.000000  0      -3142348.109       -434681.267      -6323431.674
10 0 59701  52860.000000  0      -3339970.852       -382329.620      -6224456.899
10 0 59701  52890.000000  0      -3534006.665       -328737.109      -6119182.842
10 0 59701  52920.000000  0      -3724254.340       -273973.605      -6007714.274
10 0 59701  52950.000000  0      -3910516.638       -218111.056      -5890162.228
10 0 59701  52980.000000  0      -4092600.488       -161223.401      -5766643.902
10 0 59701  53010.000000  0      -4270317.194       -103386.472      -5637282.549
10 0 59701  53040.000000  0      -4443482.631        -44677.911      -5502207.374
10 0 59701  53070.000000  0      -4611917.437         14822.931      -5361553.413
10 0 59701  53100.000000  0      -4775447.214         75035.088      -5215461.410
10 0 59701  53130.000000  0      -4933902.708        135876.085      -5064077.694
10 0 59701  53160.000000  0      -5087119.997        197262.036      -4907554.041
10 0 59701  53190.000000  0      -5234940.672        259107.758      -4746047.534
10 0 59701  53220.000000  0      -5377212.010        321326.876      -4579720.416
10 0 59701  53250.000000  0      -5513787.141        383831.941      -4408739.931
10 0 59701  53280.000000  0      -5644525.214        446534.538      -4233278.168
10 0 59701  53310.000000  0      -5769291.544        509345.402      -4053511.891
10 0 59701  53340.000000  0      -5887957.770        572174.536      -3869622.377
10 0 59701  53370.000000  0      -6000402.000        634931.330      -3681795.237
10 0 59701  53400.000000  0      -6106508.946        697524.684      -3490220.235
10 0 59701  53430.000000  0      -6206170.058        759863.129      -3295091.097
10 0 59701  53460.000000  0      -6299283.646        821854.953      -3096605.324
10 0 59701  53490.000000  0      -6385754.994        883408.320      -2894963.990
10 0 59701  53520.000000  0      -6465496.473        944431.402      -2690371.543
10 0 59701  53550.000000  0      -6538427.638       1004832.499      -2483035.600
10 0 59701  53580.000000  0      -6604475.324       1064520.166      -2273166.740
10 0 59701  53610.000000  0      -6663573.732       1123403.347      -2060978.292
10 0 59701  53640.000000  0      -6715664.517       1181391.495      -1846686.113
10 0 59701  53670.000000  0      -6760696.849       1238394.710      -1630508.367
10 0 59701  53700.000000  0      -6798627.483       1294323.855      -1412665.293
10 0 59701  53730.000000  0      -6829420.802       1349090.694      -1193378.981
10 0 59701  53760.000000  0      -6853048.865       1402608.007       -972873.131
10 0 59701  53790.000000  0      -6869491.433       1454789.722       -751372.825
10 0 59701  53820.000000  0      -6878735.993       1505551.031       -529104.290
10 0 59701  53850.000000  0      -6880777.778       1554808.519       -306294.665
10 0 59701  53880.000000  0      -6875619.767       1602480.284        -83171.758
10 0 59701  53910.000000  0      -6863272.688       1648486.058        140036.188
10 0 59701  53940.000000  0      -6843755.007       1692747.325        363100.739
10 0 59701  53970.000000  0      -6817092.906       1735187.441        585793.510
99
